0 FENGYUN 1C DEB
1 30695U 99025ARD 13281.37340962  .00013562  00000-0  27320-2 0  9260
2 30695 098.9707 077.7338 0111959 227.8638 192.5740 14.57715173350302
0 FENGYUN 1C DEB
1 30695U 99025ARD 13282.20201752  .00024666  00000-0  49474-2 0  9278
2 30695 098.9707 078.6268 0111854 225.3772 220.9324 14.57757875350422
0 FENGYUN 1C DEB
1 30695U 99025ARD 13282.69065355  .00019268  00000-0  38688-2 0  9286
2 30695 098.9706 079.1534 0111875 223.9120 265.2536 14.57773728350496
0 FENGYUN 1C DEB
1 30695U 99025ARD 13283.62683037  .00011782  00000-0  23658-2 0  9298
2 30695 098.9687 080.1606 0111773 220.9221 138.4037 14.57775500350635
0 FENGYUN 1C DEB
1 30695U 99025ARD 13283.85346440  .00023446  00000-0  46985-2 0  9295
2 30695 098.9703 080.4067 0111825 220.4027 247.7297 14.57812337350660
0 FENGYUN 1C DEB
1 30695U 99025ARD 13285.41532372  .00018530  00000-0  37145-2 0  9319
2 30695 098.9697 082.0902 0111764 215.7229 164.6546 14.57864032350899
0 FENGYUN 1C DEB
1 30695U 99025ARD 13286.74045203  .00018370  00000-0  36793-2 0  9329
2 30695 098.9694 083.5186 0111684 211.6905 279.4665 14.57908056351087
0 FENGYUN 1C DEB
1 30695U 99025ARD 13288.17363148  .00032624  00000-0  65050-2 0  9336
2 30695 098.9693 085.0637 0111548 207.4089 241.5505 14.57967219351291
0 FENGYUN 1C DEB
1 30695U 99025ARD 13289.33267881  .00025542  00000-0  50945-2 0  9341
2 30695 098.9697 086.3135 0111512 203.8515 205.1902 14.58020583351468
0 FENGYUN 1C DEB
1 30695U 99025ARD 13290.23059128  .00027460  00000-0  54718-2 0  9359
2 30695 098.9697 087.2815 0111403 201.2028 238.2120 14.58053090351595
0 FENGYUN 1C DEB
1 30695U 99025ARD 13290.62715716  .00018308  00000-0  36514-2 0  9359
2 30695 098.9691 087.7090 0111989 199.6494 160.0859 14.58060638351659
0 FENGYUN 1C DEB
1 30695U 99025ARD 13291.39346934  .00023638  00000-0  47092-2 0  9362
2 30695 098.9700 088.5353 0111305 197.6918 222.2613 14.58108409351762
0 FENGYUN 1C DEB
1 30695U 99025ARD 13292.42175001  .00023572  00000-0  46922-2 0  9371
2 30695 098.9702 089.6444 0111162 194.6038 219.9644 14.58154606351912
0 FENGYUN 1C DEB
1 30695U 99025ARD 13293.73908420  .00025200  00000-0  50086-2 0  9382
2 30695 098.9704 091.0655 0111088 190.5736 295.3022 14.58210366352108
0 FENGYUN 1C DEB
1 30695U 99025ARD 13295.17311625  .00026769  00000-0  53131-2 0  9393
2 30695 098.9707 092.6122 0110914 186.2742 263.4602 14.58267621352312
